{
"type": "FeatureCollection",
"name": "open_areas",
"crs": { "type": "name", "properties": { "name": "urn:ogc:def:crs:OGC:1.3:CRS84" } },
"features": [
{ "type": "Feature", "properties": { "element": "way", "id": 46352601, "access": null, "leisure": "sports_centre", "addr:city": null, "addr:housenumber": null, "addr:postcode": null, "addr:street": null, "name": "Doppelturnhalle Carl-Platz-Schule", "opening_hours": null, "operator": null, "phone": null, "website": null, "building": "yes", "description": "Turnhalle", "sport": "multi", "area": null, "lit": null, "surface": null, "lanes": null, "addr:country": null, "cuisine": null, "indoor_seating": null, "outdoor_seating": null, "seasonal": null, "brand": null, "cycling": null, "denomination": null, "landuse": null, "religion": null, "amenity": null, "fee": null, "parking": null, "capacity": null, "source": null, "layer": null }, "geometry": { "type": "Polygon", "coordinates": [ [ [ 10.8877775, 49.5711109 ], [ 10.8876691, 49.5709595 ], [ 10.8875685, 49.5709898 ], [ 10.8874817, 49.5708689 ], [ 10.8872801, 49.5709298 ], [ 10.8870396, 49.5710024 ], [ 10.8871148, 49.5711071 ], [ 10.8869867, 49.571083 ], [ 10.8869685, 49.5711237 ], [ 10.8869744, 49.5711661 ], [ 10.8870093, 49.5712 ], [ 10.8870572, 49.5712274 ], [ 10.8871154, 49.5712425 ], [ 10.8871728, 49.5712448 ], [ 10.8872902, 49.5712107 ], [ 10.8873176, 49.5712503 ], [ 10.8877004, 49.5711389 ], [ 10.8876976, 49.5711349 ], [ 10.8877775, 49.5711109 ] ] ] } },
{ "type": "Feature", "properties": { "element": "way", "id": 47487531, "access": null, "leisure": "swimming_pool", "addr:city": null, "addr:housenumber": null, "addr:postcode": null, "addr:street": null, "name": null, "opening_hours": null, "operator": null, "phone": null, "website": null, "building": null, "description": null, "sport": null, "area": null, "lit": null, "surface": null, "lanes": null, "addr:country": null, "cuisine": null, "indoor_seating": null, "outdoor_seating": null, "seasonal": null, "brand": null, "cycling": null, "denomination": null, "landuse": null, "religion": null, "amenity": null, "fee": null, "parking": null, "capacity": null, "source": null, "layer": null }, "geometry": { "type": "Polygon", "coordinates": [ [ [ 10.8884428, 49.5689409 ], [ 10.8886029, 49.5689266 ], [ 10.8885559, 49.5687042 ], [ 10.8883958, 49.5687185 ], [ 10.8884428, 49.5689409 ] ] ] } },
{ "type": "Feature", "properties": { "element": "way", "id": 58904353, "access": null, "leisure": "track", "addr:city": null, "addr:housenumber": null, "addr:postcode": null, "addr:street": null, "name": null, "opening_hours": null, "operator": null, "phone": null, "website": null, "building": null, "description": null, "sport": "athletics", "area": "yes", "lit": "no", "surface": "tartan", "lanes": null, "addr:country": null, "cuisine": null, "indoor_seating": null, "outdoor_seating": null, "seasonal": null, "brand": null, "cycling": null, "denomination": null, "landuse": null, "religion": null, "amenity": null, "fee": null, "parking": null, "capacity": null, "source": null, "layer": null }, "geometry": { "type": "Polygon", "coordinates": [ [ [ 10.8886776, 49.5692755 ], [ 10.8886899, 49.5693229 ], [ 10.8904595, 49.5691305 ], [ 10.8904473, 49.5690832 ], [ 10.8886776, 49.5692755 ] ] ] } },
{ "type": "Feature", "properties": { "element": "way", "id": 58904388, "access": null, "leisure": "pitch", "addr:city": null, "addr:housenumber": null, "addr:postcode": null, "addr:street": null, "name": null, "opening_hours": null, "operator": null, "phone": null, "website": null, "building": null, "description": null, "sport": "soccer", "area": null, "lit": "no", "surface": "grass", "lanes": null, "addr:country": null, "cuisine": null, "indoor_seating": null, "outdoor_seating": null, "seasonal": null, "brand": null, "cycling": null, "denomination": null, "landuse": null, "religion": null, "amenity": null, "fee": null, "parking": null, "capacity": null, "source": null, "layer": null }, "geometry": { "type": "Polygon", "coordinates": [ [ [ 10.8894233, 49.5689739 ], [ 10.890329, 49.5689344 ], [ 10.8902852, 49.5685115 ], [ 10.8893796, 49.568551 ], [ 10.8894233, 49.5689739 ] ] ] } },
{ "type": "Feature", "properties": { "element": "way", "id": 58904464, "access": null, "leisure": "pitch", "addr:city": null, "addr:housenumber": null, "addr:postcode": null, "addr:street": null, "name": null, "opening_hours": null, "operator": null, "phone": null, "website": null, "building": null, "description": null, "sport": "multi", "area": null, "lit": "no", "surface": "tartan", "lanes": null, "addr:country": null, "cuisine": null, "indoor_seating": null, "outdoor_seating": null, "seasonal": null, "brand": null, "cycling": null, "denomination": null, "landuse": null, "religion": null, "amenity": null, "fee": null, "parking": null, "capacity": null, "source": null, "layer": null }, "geometry": { "type": "Polygon", "coordinates": [ [ [ 10.8886637, 49.569246 ], [ 10.889261, 49.5691803 ], [ 10.8891986, 49.5689416 ], [ 10.8886012, 49.5690073 ], [ 10.8886637, 49.569246 ] ] ] } },
{ "type": "Feature", "properties": { "element": "way", "id": 251412558, "access": null, "leisure": "park", "addr:city": null, "addr:housenumber": null, "addr:postcode": null, "addr:street": null, "name": "Wiwaweiherpark", "opening_hours": null, "operator": null, "phone": null, "website": null, "building": null, "description": null, "sport": null, "area": null, "lit": null, "surface": null, "lanes": null, "addr:country": null, "cuisine": null, "indoor_seating": null, "outdoor_seating": null, "seasonal": null, "brand": null, "cycling": null, "denomination": null, "landuse": null, "religion": null, "amenity": null, "fee": null, "parking": null, "capacity": null, "source": null, "layer": null }, "geometry": { "type": "Polygon", "coordinates": [ [ [ 10.8846978, 49.5720088 ], [ 10.884337, 49.5718519 ], [ 10.8837024, 49.5713021 ], [ 10.8834771, 49.5713138 ], [ 10.8828141, 49.5712752 ], [ 10.8823542, 49.5711862 ], [ 10.8821286, 49.5711785 ], [ 10.882152, 49.5711194 ], [ 10.8824833, 49.5711355 ], [ 10.8828562, 49.5711476 ], [ 10.8829591, 49.5711509 ], [ 10.8835488, 49.5711747 ], [ 10.8836035, 49.5712076 ], [ 10.8837109, 49.57116 ], [ 10.8837966, 49.5711411 ], [ 10.8846028, 49.5709255 ], [ 10.88502, 49.5713588 ], [ 10.8854017, 49.5712144 ], [ 10.8854623, 49.5713369 ], [ 10.8857707, 49.5719489 ], [ 10.8852844, 49.5720695 ], [ 10.8846978, 49.5720088 ] ] ] } },
{ "type": "Feature", "properties": { "element": "way", "id": 251412559, "access": null, "leisure": "park", "addr:city": null, "addr:housenumber": null, "addr:postcode": null, "addr:street": null, "name": null, "opening_hours": null, "operator": null, "phone": null, "website": null, "building": null, "description": null, "sport": null, "area": null, "lit": null, "surface": null, "lanes": null, "addr:country": null, "cuisine": null, "indoor_seating": null, "outdoor_seating": null, "seasonal": null, "brand": null, "cycling": null, "denomination": null, "landuse": null, "religion": null, "amenity": null, "fee": null, "parking": null, "capacity": null, "source": null, "layer": null }, "geometry": { "type": "Polygon", "coordinates": [ [ [ 10.8860852, 49.5667171 ], [ 10.8862444, 49.5668163 ], [ 10.8869536, 49.5662477 ], [ 10.8870835, 49.5663439 ], [ 10.8875222, 49.5660519 ], [ 10.8879587, 49.5658537 ], [ 10.8882777, 49.565735 ], [ 10.8892327, 49.5657666 ], [ 10.8897068, 49.5654223 ], [ 10.8899471, 49.5653912 ], [ 10.8900885, 49.5656144 ], [ 10.8910295, 49.5654805 ], [ 10.8910774, 49.5652555 ], [ 10.8903148, 49.565022 ], [ 10.8900396, 49.5648307 ], [ 10.8889395, 49.5649491 ], [ 10.8879761, 49.5651487 ], [ 10.8872887, 49.565352 ], [ 10.8857529, 49.5659508 ], [ 10.8854064, 49.5660543 ], [ 10.8853432, 49.5661467 ], [ 10.8853408, 49.5666299 ], [ 10.8860852, 49.5667171 ] ] ] } },
{ "type": "Feature", "properties": { "element": "way", "id": 251412561, "access": null, "leisure": "pitch", "addr:city": null, "addr:housenumber": null, "addr:postcode": null, "addr:street": null, "name": null, "opening_hours": null, "operator": null, "phone": null, "website": null, "building": null, "description": null, "sport": "multi", "area": null, "lit": "no", "surface": "tartan", "lanes": null, "addr:country": null, "cuisine": null, "indoor_seating": null, "outdoor_seating": null, "seasonal": null, "brand": null, "cycling": null, "denomination": null, "landuse": null, "religion": null, "amenity": null, "fee": null, "parking": null, "capacity": null, "source": null, "layer": null }, "geometry": { "type": "Polygon", "coordinates": [ [ [ 10.8866131, 49.5715559 ], [ 10.8867886, 49.5717721 ], [ 10.887316, 49.5715921 ], [ 10.8871405, 49.5713759 ], [ 10.8866131, 49.5715559 ] ] ] } },
{ "type": "Feature", "properties": { "element": "way", "id": 270228331, "access": "yes", "leisure": "playground", "addr:city": null, "addr:housenumber": null, "addr:postcode": null, "addr:street": null, "name": null, "opening_hours": null, "operator": null, "phone": null, "website": null, "building": null, "description": null, "sport": null, "area": null, "lit": null, "surface": null, "lanes": null, "addr:country": null, "cuisine": null, "indoor_seating": null, "outdoor_seating": null, "seasonal": null, "brand": null, "cycling": null, "denomination": null, "landuse": null, "religion": null, "amenity": null, "fee": null, "parking": null, "capacity": null, "source": null, "layer": null }, "geometry": { "type": "Polygon", "coordinates": [ [ [ 10.8844309, 49.5667845 ], [ 10.8846938, 49.5667532 ], [ 10.8847206, 49.5666749 ], [ 10.8845972, 49.5666349 ], [ 10.8844792, 49.566621 ], [ 10.8843987, 49.5666262 ], [ 10.8843883, 49.5666682 ], [ 10.8844043, 49.5667534 ], [ 10.8844309, 49.5667845 ] ] ] } },
{ "type": "Feature", "properties": { "element": "way", "id": 272999449, "access": null, "leisure": "track", "addr:city": null, "addr:housenumber": null, "addr:postcode": null, "addr:street": null, "name": null, "opening_hours": null, "operator": null, "phone": null, "website": null, "building": null, "description": null, "sport": "running", "area": null, "lit": "no", "surface": "tartan", "lanes": "4", "addr:country": null, "cuisine": null, "indoor_seating": null, "outdoor_seating": null, "seasonal": null, "brand": null, "cycling": null, "denomination": null, "landuse": null, "religion": null, "amenity": null, "fee": null, "parking": null, "capacity": null, "source": null, "layer": null }, "geometry": { "type": "Polygon", "coordinates": [ [ [ 10.8867909, 49.5717931 ], [ 10.8880704, 49.5713565 ], [ 10.8881058, 49.5714003 ], [ 10.8868264, 49.5718368 ], [ 10.8867909, 49.5717931 ] ] ] } },
{ "type": "Feature", "properties": { "element": "way", "id": 381847300, "access": null, "leisure": "outdoor_seating", "addr:city": "Herzogenaurach", "addr:housenumber": "8", "addr:postcode": "91074", "addr:street": "Erlanger Straße", "name": null, "opening_hours": null, "operator": "Eiscafe Carlo", "phone": null, "website": null, "building": null, "description": null, "sport": null, "area": null, "lit": "no", "surface": null, "lanes": null, "addr:country": "DE", "cuisine": "ice_cream", "indoor_seating": "yes", "outdoor_seating": "yes", "seasonal": "yes", "brand": null, "cycling": null, "denomination": null, "landuse": null, "religion": null, "amenity": null, "fee": null, "parking": null, "capacity": null, "source": null, "layer": null }, "geometry": { "type": "Polygon", "coordinates": [ [ [ 10.8853174, 49.5675393 ], [ 10.8853141, 49.5675502 ], [ 10.885323, 49.5675625 ], [ 10.8853364, 49.5675697 ], [ 10.8853553, 49.5675769 ], [ 10.8853899, 49.5675813 ], [ 10.8855361, 49.5675934 ], [ 10.8855712, 49.5675963 ], [ 10.8855718, 49.567571 ], [ 10.8855732, 49.567511 ], [ 10.8857556, 49.5675127 ], [ 10.8856999, 49.5674721 ], [ 10.8856866, 49.5674373 ], [ 10.8855855, 49.5674776 ], [ 10.8855739, 49.5674822 ], [ 10.885517, 49.5674482 ], [ 10.8853174, 49.5675393 ] ] ] } },
{ "type": "Feature", "properties": { "element": "way", "id": 802009870, "access": null, "leisure": "park", "addr:city": null, "addr:housenumber": null, "addr:postcode": null, "addr:street": null, "name": "Aurachpromenade", "opening_hours": null, "operator": null, "phone": null, "website": null, "building": null, "description": null, "sport": null, "area": null, "lit": null, "surface": null, "lanes": null, "addr:country": null, "cuisine": null, "indoor_seating": null, "outdoor_seating": null, "seasonal": null, "brand": null, "cycling": null, "denomination": null, "landuse": null, "religion": null, "amenity": null, "fee": null, "parking": null, "capacity": null, "source": null, "layer": null }, "geometry": { "type": "Polygon", "coordinates": [ [ [ 10.8808486, 49.5677078 ], [ 10.8808641, 49.5677153 ], [ 10.8809324, 49.5677477 ], [ 10.8809828, 49.5676224 ], [ 10.8811247, 49.5675281 ], [ 10.8817146, 49.5671674 ], [ 10.8818167, 49.5671352 ], [ 10.8819947, 49.5670802 ], [ 10.8820559, 49.5670599 ], [ 10.882325, 49.5669988 ], [ 10.8828723, 49.5669239 ], [ 10.8840179, 49.5665305 ], [ 10.8843401, 49.566643 ], [ 10.88442, 49.5665995 ], [ 10.8845499, 49.5665639 ], [ 10.8846883, 49.5665665 ], [ 10.8851079, 49.566608 ], [ 10.8850763, 49.5664508 ], [ 10.8850483, 49.5663776 ], [ 10.8849302, 49.5662106 ], [ 10.8841497, 49.566315 ], [ 10.8832592, 49.5664646 ], [ 10.8824841, 49.5666525 ], [ 10.881776, 49.5669186 ], [ 10.8814863, 49.5670822 ], [ 10.8806294, 49.567598 ], [ 10.880669, 49.5676214 ], [ 10.8808486, 49.5677078 ] ] ] } },
{ "type": "Feature", "properties": { "element": "way", "id": 1104099539, "access": null, "leisure": "pitch", "addr:city": null, "addr:housenumber": null, "addr:postcode": null, "addr:street": null, "name": null, "opening_hours": null, "operator": null, "phone": null, "website": null, "building": null, "description": null, "sport": "boules", "area": null, "lit": "no", "surface": "sand", "lanes": null, "addr:country": null, "cuisine": null, "indoor_seating": null, "outdoor_seating": null, "seasonal": null, "brand": null, "cycling": null, "denomination": null, "landuse": null, "religion": null, "amenity": null, "fee": null, "parking": null, "capacity": null, "source": null, "layer": null }, "geometry": { "type": "Polygon", "coordinates": [ [ [ 10.8848894, 49.5671885 ], [ 10.8849188, 49.5670492 ], [ 10.8849769, 49.5670536 ], [ 10.8849584, 49.5671895 ], [ 10.8848894, 49.5671885 ] ] ] } },
{ "type": "Feature", "properties": { "element": "way", "id": 1275338774, "access": "private", "leisure": "pitch", "addr:city": null, "addr:housenumber": null, "addr:postcode": null, "addr:street": null, "name": null, "opening_hours": null, "operator": null, "phone": null, "website": null, "building": null, "description": null, "sport": "cycling", "area": null, "lit": null, "surface": "dirt", "lanes": null, "addr:country": null, "cuisine": null, "indoor_seating": null, "outdoor_seating": null, "seasonal": null, "brand": "Dirtways", "cycling": "pump_track", "denomination": null, "landuse": null, "religion": null, "amenity": null, "fee": null, "parking": null, "capacity": null, "source": null, "layer": null }, "geometry": { "type": "Polygon", "coordinates": [ [ [ 10.8894682, 49.5691822 ], [ 10.8899624, 49.5691204 ], [ 10.889922, 49.5689846 ], [ 10.8894278, 49.5690464 ], [ 10.8894682, 49.5691822 ] ] ] } },
{ "type": "Feature", "properties": { "element": "way", "id": 29289498, "access": null, "leisure": null, "addr:city": "Herzogenaurach", "addr:housenumber": "3", "addr:postcode": "91074", "addr:street": "Am Friedhof", "name": "Alter Friedhof", "opening_hours": null, "operator": "atholische Pfarreiengemeinschaft Herzogenaurach", "phone": null, "website": null, "building": null, "description": null, "sport": null, "area": null, "lit": null, "surface": null, "lanes": null, "addr:country": "DE", "cuisine": null, "indoor_seating": null, "outdoor_seating": null, "seasonal": null, "brand": null, "cycling": null, "denomination": "catholic", "landuse": "cemetery", "religion": "christian", "amenity": null, "fee": null, "parking": null, "capacity": null, "source": null, "layer": null }, "geometry": { "type": "Polygon", "coordinates": [ [ [ 10.8921708, 49.5676717 ], [ 10.8921591, 49.5681803 ], [ 10.8921819, 49.5684075 ], [ 10.892714, 49.568413 ], [ 10.8926559, 49.5686151 ], [ 10.8926602, 49.5688485 ], [ 10.8927271, 49.5692467 ], [ 10.8928643, 49.5692511 ], [ 10.8929203, 49.5696006 ], [ 10.8929232, 49.5696189 ], [ 10.8922572, 49.5696455 ], [ 10.892238, 49.5695622 ], [ 10.8918613, 49.5695629 ], [ 10.8916001, 49.5695635 ], [ 10.8913445, 49.5695641 ], [ 10.8911373, 49.56879 ], [ 10.891033, 49.5679795 ], [ 10.891029, 49.5679488 ], [ 10.8909793, 49.5675632 ], [ 10.8909769, 49.5675444 ], [ 10.8910275, 49.5675394 ], [ 10.8910111, 49.567436 ], [ 10.8916624, 49.5675228 ], [ 10.8921708, 49.5676717 ] ] ] } },
{ "type": "Feature", "properties": { "element": "way", "id": 264966272, "access": null, "leisure": null, "addr:city": null, "addr:housenumber": null, "addr:postcode": null, "addr:street": null, "name": null, "opening_hours": null, "operator": null, "phone": null, "website": null, "building": null, "description": null, "sport": null, "area": null, "lit": null, "surface": null, "lanes": null, "addr:country": null, "cuisine": null, "indoor_seating": null, "outdoor_seating": null, "seasonal": null, "brand": null, "cycling": null, "denomination": null, "landuse": "residential", "religion": null, "amenity": null, "fee": null, "parking": null, "capacity": null, "source": null, "layer": null }, "geometry": { "type": "Polygon", "coordinates": [ [ [ 10.91856, 49.561982 ], [ 10.9189709, 49.5617058 ], [ 10.9193493, 49.5613393 ], [ 10.919374, 49.5611929 ], [ 10.9191879, 49.5609457 ], [ 10.9190762, 49.5603916 ], [ 10.9186983, 49.560207 ], [ 10.9176865, 49.559992 ], [ 10.9173495, 49.5599189 ], [ 10.9172344, 49.559894 ], [ 10.9171107, 49.5594282 ], [ 10.9166799, 49.5593997 ], [ 10.9164864, 49.5593858 ], [ 10.9163325, 49.5593847 ], [ 10.9161803, 49.5593912 ], [ 10.9160493, 49.5594288 ], [ 10.9158997, 49.5595083 ], [ 10.9158081, 49.5595937 ], [ 10.9157387, 49.5596693 ], [ 10.9156173, 49.5598712 ], [ 10.9155669, 49.5599731 ], [ 10.9155465, 49.5600385 ], [ 10.915526, 49.5601115 ], [ 10.9154722, 49.56019 ], [ 10.9153015, 49.5603058 ], [ 10.9151108, 49.56036 ], [ 10.9149633, 49.5603708 ], [ 10.9148888, 49.5603613 ], [ 10.914826, 49.5603443 ], [ 10.9146727, 49.5602771 ], [ 10.914578, 49.5601987 ], [ 10.9145119, 49.5601662 ], [ 10.9143171, 49.5601154 ], [ 10.9141303, 49.5600918 ], [ 10.9139574, 49.5600833 ], [ 10.9138742, 49.5601084 ], [ 10.9138378, 49.5601594 ], [ 10.9138537, 49.56022 ], [ 10.9138651, 49.5602821 ], [ 10.9138367, 49.560374 ], [ 10.9138089, 49.5604328 ], [ 10.9137324, 49.5604647 ], [ 10.9136825, 49.5604855 ], [ 10.9134252, 49.5605909 ], [ 10.9133047, 49.5606761 ], [ 10.9131418, 49.5608179 ], [ 10.9129235, 49.5610259 ], [ 10.912877, 49.5610828 ], [ 10.9127515, 49.5611037 ], [ 10.9126867, 49.5610945 ], [ 10.9125888, 49.5610644 ], [ 10.9124831, 49.5610495 ], [ 10.9123553, 49.561057 ], [ 10.9122464, 49.5610905 ], [ 10.9122205, 49.5611144 ], [ 10.9122063, 49.5611274 ], [ 10.9121974, 49.5611481 ], [ 10.9121787, 49.5612287 ], [ 10.9121799, 49.5612987 ], [ 10.9121934, 49.5613576 ], [ 10.9121952, 49.5613653 ], [ 10.9122155, 49.5614299 ], [ 10.9122204, 49.5614626 ], [ 10.9122217, 49.5614652 ], [ 10.9122063, 49.5614697 ], [ 10.9122239, 49.5614967 ], [ 10.9121815, 49.561511 ], [ 10.9121857, 49.5615194 ], [ 10.9120377, 49.561554 ], [ 10.9119161, 49.5615692 ], [ 10.9117791, 49.5615744 ], [ 10.9117521, 49.5615742 ], [ 10.911622, 49.561573 ], [ 10.9116529, 49.5616245 ], [ 10.9116572, 49.5617633 ], [ 10.9115005, 49.5617988 ], [ 10.9111535, 49.5618911 ], [ 10.9111063, 49.5619037 ], [ 10.9110487, 49.561919 ], [ 10.9109871, 49.5619354 ], [ 10.9108967, 49.5619594 ], [ 10.9107306, 49.5620036 ], [ 10.9103977, 49.5620922 ], [ 10.9103773, 49.5620976 ], [ 10.9103098, 49.5621156 ], [ 10.9099895, 49.5622008 ], [ 10.9099516, 49.5620258 ], [ 10.9098998, 49.5620429 ], [ 10.9097139, 49.5621044 ], [ 10.9094887, 49.5621943 ], [ 10.9094409, 49.5622142 ], [ 10.9093538, 49.5622505 ], [ 10.9091937, 49.5622991 ], [ 10.9090766, 49.5623395 ], [ 10.9089733, 49.5623683 ], [ 10.9089023, 49.5623849 ], [ 10.9088667, 49.5623861 ], [ 10.9088908, 49.5624286 ], [ 10.909056, 49.5626779 ], [ 10.9074874, 49.562754 ], [ 10.9060724, 49.5628861 ], [ 10.9059956, 49.562683 ], [ 10.9046, 49.5629994 ], [ 10.9048007, 49.5632735 ], [ 10.9009843, 49.5644955 ], [ 10.8997773, 49.5646851 ], [ 10.899324, 49.5647129 ], [ 10.8989994, 49.5648295 ], [ 10.8985739, 49.5650024 ], [ 10.8969494, 49.5652206 ], [ 10.8945406, 49.5650263 ], [ 10.893615, 49.5656305 ], [ 10.8926479, 49.5657313 ], [ 10.8910295, 49.5654805 ], [ 10.8900885, 49.5656144 ], [ 10.8899471, 49.5653912 ], [ 10.8897068, 49.5654223 ], [ 10.8892327, 49.5657666 ], [ 10.8882777, 49.565735 ], [ 10.8879587, 49.5658537 ], [ 10.8875222, 49.5660519 ], [ 10.8870835, 49.5663439 ], [ 10.8869536, 49.5662477 ], [ 10.8862444, 49.5668163 ], [ 10.8860852, 49.5667171 ], [ 10.8853408, 49.5666299 ], [ 10.8851079, 49.566608 ], [ 10.8847561, 49.566575 ], [ 10.8840087, 49.5665048 ], [ 10.8820137, 49.5670843 ], [ 10.8819947, 49.5670802 ], [ 10.8814275, 49.5669576 ], [ 10.881294, 49.5660394 ], [ 10.8813591, 49.5660338 ], [ 10.8820594, 49.5659917 ], [ 10.8819887, 49.5653571 ], [ 10.8839043, 49.5645309 ], [ 10.883941, 49.5645151 ], [ 10.8836274, 49.5641651 ], [ 10.8838159, 49.5637393 ], [ 10.8833254, 49.562489 ], [ 10.8837021, 49.5617288 ], [ 10.8827407, 49.5610644 ], [ 10.8833729, 49.560196 ], [ 10.8819035, 49.5596781 ], [ 10.8816587, 49.5594955 ], [ 10.8814301, 49.5595515 ], [ 10.8810429, 49.5594165 ], [ 10.8798882, 49.5588277 ], [ 10.8792191, 49.5595316 ], [ 10.8790157, 49.5594451 ], [ 10.8794317, 49.5588981 ], [ 10.8795524, 49.5586314 ], [ 10.8774375, 49.5579987 ], [ 10.876544, 49.5578928 ], [ 10.8764056, 49.558131 ], [ 10.8762593, 49.558017 ], [ 10.8751143, 49.5578946 ], [ 10.8750311, 49.557988 ], [ 10.8746424, 49.5579425 ], [ 10.8745796, 49.5581938 ], [ 10.8738529, 49.5581748 ], [ 10.8738966, 49.5576933 ], [ 10.8734733, 49.5575927 ], [ 10.8727633, 49.5574785 ], [ 10.8720584, 49.5574198 ], [ 10.8720249, 49.5576482 ], [ 10.8711006, 49.5576154 ], [ 10.8711193, 49.557347 ], [ 10.8702641, 49.5571969 ], [ 10.8695835, 49.5571614 ], [ 10.8681382, 49.5572868 ], [ 10.8637163, 49.5569121 ], [ 10.8630185, 49.5581378 ], [ 10.8632661, 49.5593342 ], [ 10.8626657, 49.5595671 ], [ 10.8625439, 49.5606571 ], [ 10.8633064, 49.5606972 ], [ 10.8648546, 49.5606336 ], [ 10.8664049, 49.5608364 ], [ 10.866442, 49.5608567 ], [ 10.867289, 49.5613208 ], [ 10.8693661, 49.5626736 ], [ 10.8708945, 49.563244 ], [ 10.8728026, 49.5639341 ], [ 10.8737826, 49.5641038 ], [ 10.8736153, 49.5642778 ], [ 10.8740518, 49.5645477 ], [ 10.8741634, 49.5646319 ], [ 10.8734111, 49.5652503 ], [ 10.8733751, 49.56528 ], [ 10.8726792, 49.5648616 ], [ 10.8725029, 49.5649934 ], [ 10.8714058, 49.5644791 ], [ 10.870315, 49.5641003 ], [ 10.8699413, 49.5640662 ], [ 10.8694394, 49.5643222 ], [ 10.8679068, 49.5642496 ], [ 10.8678731, 49.5647394 ], [ 10.8679018, 49.5663215 ], [ 10.8677687, 49.5670512 ], [ 10.8689951, 49.5670277 ], [ 10.8696343, 49.5670485 ], [ 10.8696168, 49.5671828 ], [ 10.8701596, 49.5672125 ], [ 10.8701592, 49.5679332 ], [ 10.8700156, 49.5692564 ], [ 10.8695739, 49.5697337 ], [ 10.8690508, 49.5700617 ], [ 10.8700964, 49.5701008 ], [ 10.8714053, 49.5701908 ], [ 10.8721519, 49.5700896 ], [ 10.8722386, 49.5702739 ], [ 10.8728221, 49.5700442 ], [ 10.8736813, 49.5697756 ], [ 10.874293, 49.5695709 ], [ 10.874525, 49.569786 ], [ 10.8746814, 49.5699684 ], [ 10.8748243, 49.5701342 ], [ 10.8753505, 49.5706965 ], [ 10.8751267, 49.5708052 ], [ 10.8749194, 49.5708658 ], [ 10.8744794, 49.5709774 ], [ 10.8740787, 49.571089 ], [ 10.873466, 49.5712805 ], [ 10.8731344, 49.571368 ], [ 10.8729937, 49.5713728 ], [ 10.872682, 49.5712747 ], [ 10.8724623, 49.5710717 ], [ 10.8717547, 49.570887 ], [ 10.8686801, 49.5715529 ], [ 10.8688205, 49.5718301 ], [ 10.8681991, 49.572044 ], [ 10.8685771, 49.5724572 ], [ 10.8684123, 49.5725008 ], [ 10.867408, 49.5730412 ], [ 10.8669515, 49.5731769 ], [ 10.8661721, 49.5732944 ], [ 10.8656163, 49.5734563 ], [ 10.8655539, 49.5734521 ], [ 10.8655147, 49.5734339 ], [ 10.8654822, 49.573399 ], [ 10.8654276, 49.5732702 ], [ 10.8654055, 49.5732177 ], [ 10.8651486, 49.5732698 ], [ 10.8650419, 49.5733572 ], [ 10.8652356, 49.5736102 ], [ 10.8648426, 49.573856 ], [ 10.8651276, 49.5741482 ], [ 10.8654422, 49.5739845 ], [ 10.8662703, 49.5748249 ], [ 10.8667338, 49.5746802 ], [ 10.8677449, 49.5756247 ], [ 10.8688607, 49.5756038 ], [ 10.8691504, 49.5757847 ], [ 10.869424, 49.5759821 ], [ 10.8700355, 49.5756638 ], [ 10.8701321, 49.5759456 ], [ 10.8708936, 49.5767349 ], [ 10.8718968, 49.5766093 ], [ 10.8729328, 49.5764257 ], [ 10.8730315, 49.5764731 ], [ 10.8731253, 49.5765366 ], [ 10.8731679, 49.5766278 ], [ 10.8731859, 49.5766925 ], [ 10.8731627, 49.576798 ], [ 10.8730563, 49.5769921 ], [ 10.8734612, 49.5769739 ], [ 10.8735908, 49.5772089 ], [ 10.873609, 49.5773874 ], [ 10.8735775, 49.5781129 ], [ 10.8734301, 49.5781339 ], [ 10.873594, 49.5783524 ], [ 10.8743359, 49.5781951 ], [ 10.8750833, 49.5769678 ], [ 10.8752258, 49.5766677 ], [ 10.8756388, 49.5760833 ], [ 10.8758212, 49.5759059 ], [ 10.8761967, 49.5755476 ], [ 10.8765183, 49.5753354 ], [ 10.8766685, 49.5753841 ], [ 10.8767584, 49.5754528 ], [ 10.8766914, 49.5756087 ], [ 10.8768026, 49.5755615 ], [ 10.8770387, 49.5757563 ], [ 10.8765451, 49.5761424 ], [ 10.8763241, 49.5763888 ], [ 10.8765264, 49.5765382 ], [ 10.8768597, 49.5762624 ], [ 10.877367, 49.5760256 ], [ 10.8773882, 49.5760482 ], [ 10.8769457, 49.5762982 ], [ 10.8766361, 49.5765742 ], [ 10.8769783, 49.576872 ], [ 10.8768563, 49.577019 ], [ 10.8769996, 49.5771987 ], [ 10.876997, 49.5773365 ], [ 10.8771604, 49.5776506 ], [ 10.8773511, 49.5777184 ], [ 10.8775788, 49.578788 ], [ 10.877594, 49.5788106 ], [ 10.877845, 49.5785352 ], [ 10.8779082, 49.5784701 ], [ 10.8786498, 49.5785265 ], [ 10.8786776, 49.5778349 ], [ 10.8793206, 49.5779478 ], [ 10.8793638, 49.5779546 ], [ 10.8798451, 49.5780302 ], [ 10.8803089, 49.5780188 ], [ 10.8811361, 49.5779985 ], [ 10.88177, 49.5780144 ], [ 10.8820955, 49.5781335 ], [ 10.8822821, 49.5782295 ], [ 10.8826265, 49.578384 ], [ 10.8830927, 49.5785386 ], [ 10.8834477, 49.578597 ], [ 10.8835641, 49.5785847 ], [ 10.8837448, 49.5785655 ], [ 10.8834853, 49.5778326 ], [ 10.8834219, 49.5777416 ], [ 10.8831661, 49.5773744 ], [ 10.8831131, 49.5772984 ], [ 10.8828947, 49.5769849 ], [ 10.8840439, 49.5765209 ], [ 10.885279, 49.5761191 ], [ 10.8866582, 49.5757819 ], [ 10.8866223, 49.5756782 ], [ 10.886514, 49.5754279 ], [ 10.8860802, 49.575492 ], [ 10.8861549, 49.5747869 ], [ 10.8861671, 49.574222 ], [ 10.8851948, 49.5744075 ], [ 10.8848813, 49.5738744 ], [ 10.8847942, 49.5738675 ], [ 10.88438, 49.5730882 ], [ 10.8838413, 49.5731717 ], [ 10.8832192, 49.5731926 ], [ 10.883244, 49.5728442 ], [ 10.8839651, 49.5727836 ], [ 10.8844647, 49.57278 ], [ 10.8846957, 49.5727784 ], [ 10.8851154, 49.5724663 ], [ 10.886579, 49.5733368 ], [ 10.8864221, 49.5735834 ], [ 10.887919, 49.5741574 ], [ 10.8874114, 49.5755549 ], [ 10.8873886, 49.5756511 ], [ 10.888408, 49.5754933 ], [ 10.8889899, 49.5753182 ], [ 10.8893016, 49.5755273 ], [ 10.8894864, 49.5756282 ], [ 10.8895184, 49.5756704 ], [ 10.8897625, 49.5756065 ], [ 10.8898931, 49.5755919 ], [ 10.8909475, 49.5758521 ], [ 10.8914853, 49.5752914 ], [ 10.8913099, 49.5751183 ], [ 10.8913044, 49.5750299 ], [ 10.8913531, 49.5748406 ], [ 10.8913983, 49.5747495 ], [ 10.8914858, 49.5746815 ], [ 10.8916356, 49.574601 ], [ 10.8917223, 49.5745703 ], [ 10.8918465, 49.5745611 ], [ 10.8920149, 49.5745891 ], [ 10.8923034, 49.5746938 ], [ 10.892397, 49.5747058 ], [ 10.8924255, 49.5747519 ], [ 10.8934492, 49.574925 ], [ 10.8939052, 49.5750167 ], [ 10.8945211, 49.5750119 ], [ 10.8951967, 49.5744328 ], [ 10.8952215, 49.574315 ], [ 10.8955971, 49.574173 ], [ 10.8956776, 49.5741759 ], [ 10.895756, 49.5742955 ], [ 10.8959284, 49.5743785 ], [ 10.8961376, 49.5742267 ], [ 10.8962624, 49.5734048 ], [ 10.8961798, 49.5734012 ], [ 10.8961981, 49.5728019 ], [ 10.8962025, 49.5724385 ], [ 10.8962193, 49.5724097 ], [ 10.8962547, 49.5723935 ], [ 10.8966083, 49.5723955 ], [ 10.8971021, 49.5723575 ], [ 10.8972523, 49.5723754 ], [ 10.9003931, 49.5718196 ], [ 10.9006509, 49.5717593 ], [ 10.9008583, 49.5717331 ], [ 10.9027068, 49.5707205 ], [ 10.9031749, 49.5704762 ], [ 10.9032989, 49.5704023 ], [ 10.9034384, 49.5699911 ], [ 10.9036441, 49.5699433 ], [ 10.9039123, 49.56986 ], [ 10.904367, 49.5696442 ], [ 10.9042665, 49.56955 ], [ 10.9040865, 49.5694157 ], [ 10.9041086, 49.5693996 ], [ 10.9044082, 49.5691818 ], [ 10.9047109, 49.5693006 ], [ 10.9047727, 49.5693179 ], [ 10.9052228, 49.5694605 ], [ 10.9058236, 49.5695662 ], [ 10.9063949, 49.5696683 ], [ 10.9063607, 49.569505 ], [ 10.9064424, 49.5691778 ], [ 10.9064981, 49.5689883 ], [ 10.9065635, 49.5689243 ], [ 10.9072919, 49.568939 ], [ 10.9075318, 49.5689762 ], [ 10.9076943, 49.5689765 ], [ 10.9078465, 49.5689129 ], [ 10.9080029, 49.5688677 ], [ 10.9082523, 49.5688522 ], [ 10.909101, 49.5688854 ], [ 10.9112622, 49.5689987 ], [ 10.9114176, 49.5689365 ], [ 10.9117692, 49.5687281 ], [ 10.9120387, 49.5688086 ], [ 10.9128653, 49.5688309 ], [ 10.9147862, 49.5686219 ], [ 10.9150167, 49.5685226 ], [ 10.9153316, 49.5687948 ], [ 10.915954, 49.5688158 ], [ 10.9161552, 49.5683192 ], [ 10.9163971, 49.5674368 ], [ 10.917305, 49.5674999 ], [ 10.9170106, 49.5670253 ], [ 10.9163621, 49.5671421 ], [ 10.9160631, 49.5667299 ], [ 10.9159208, 49.5665127 ], [ 10.9158444, 49.566237 ], [ 10.9162749, 49.5661809 ], [ 10.9163909, 49.5659487 ], [ 10.9163661, 49.5657873 ], [ 10.9163151, 49.5655707 ], [ 10.9164016, 49.5652511 ], [ 10.9164479, 49.5650132 ], [ 10.9165169, 49.5646876 ], [ 10.9163915, 49.5644948 ], [ 10.9164224, 49.5640703 ], [ 10.9167945, 49.5641142 ], [ 10.9170721, 49.5637767 ], [ 10.9171524, 49.5635998 ], [ 10.9172108, 49.5634983 ], [ 10.9172679, 49.5635292 ], [ 10.9175152, 49.5633202 ], [ 10.9177345, 49.5630925 ], [ 10.9178663, 49.5631515 ], [ 10.9183435, 49.5626894 ], [ 10.9192902, 49.5624802 ], [ 10.9194144, 49.5623252 ], [ 10.91849, 49.5620891 ], [ 10.91856, 49.561982 ] ] ] } },
{ "type": "Feature", "properties": { "element": "way", "id": 272999432, "access": null, "leisure": null, "addr:city": null, "addr:housenumber": null, "addr:postcode": null, "addr:street": null, "name": null, "opening_hours": null, "operator": null, "phone": null, "website": null, "building": null, "description": null, "sport": null, "area": null, "lit": null, "surface": null, "lanes": null, "addr:country": null, "cuisine": null, "indoor_seating": null, "outdoor_seating": null, "seasonal": null, "brand": null, "cycling": null, "denomination": null, "landuse": "meadow", "religion": null, "amenity": null, "fee": null, "parking": null, "capacity": null, "source": null, "layer": null }, "geometry": { "type": "Polygon", "coordinates": [ [ [ 10.884599, 49.5716382 ], [ 10.8845406, 49.5716401 ], [ 10.884503, 49.571614 ], [ 10.8844735, 49.571574 ], [ 10.8844789, 49.5715444 ], [ 10.8845111, 49.5715253 ], [ 10.8845674, 49.5715183 ], [ 10.884613, 49.5715235 ], [ 10.8846452, 49.5715601 ], [ 10.8846532, 49.5715948 ], [ 10.8846425, 49.5716175 ], [ 10.884599, 49.5716382 ] ] ] } },
{ "type": "Feature", "properties": { "element": "way", "id": 802599318, "access": null, "leisure": null, "addr:city": null, "addr:housenumber": null, "addr:postcode": null, "addr:street": null, "name": null, "opening_hours": null, "operator": null, "phone": null, "website": null, "building": null, "description": null, "sport": null, "area": null, "lit": null, "surface": null, "lanes": null, "addr:country": null, "cuisine": null, "indoor_seating": null, "outdoor_seating": null, "seasonal": null, "brand": null, "cycling": null, "denomination": null, "landuse": "grass", "religion": null, "amenity": null, "fee": null, "parking": null, "capacity": null, "source": null, "layer": null }, "geometry": { "type": "Polygon", "coordinates": [ [ [ 10.8843096, 49.5667392 ], [ 10.8843401, 49.566643 ], [ 10.88442, 49.5665995 ], [ 10.8845499, 49.5665639 ], [ 10.8846883, 49.5665665 ], [ 10.8848276, 49.5666027 ], [ 10.8849191, 49.5666827 ], [ 10.8850136, 49.566738 ], [ 10.8850559, 49.5668037 ], [ 10.8850534, 49.5668752 ], [ 10.8850478, 49.567042 ], [ 10.8850237, 49.5671428 ], [ 10.8849888, 49.5672507 ], [ 10.8849003, 49.5673411 ], [ 10.8847459, 49.5673894 ], [ 10.8845834, 49.5673876 ], [ 10.884501, 49.5672091 ], [ 10.8844088, 49.5670278 ], [ 10.8843337, 49.5668248 ], [ 10.8843096, 49.5667392 ] ] ] } },
{ "type": "Feature", "properties": { "element": "way", "id": 803682648, "access": null, "leisure": null, "addr:city": null, "addr:housenumber": null, "addr:postcode": null, "addr:street": null, "name": null, "opening_hours": null, "operator": null, "phone": null, "website": null, "building": null, "description": null, "sport": null, "area": null, "lit": null, "surface": null, "lanes": null, "addr:country": null, "cuisine": null, "indoor_seating": null, "outdoor_seating": null, "seasonal": null, "brand": null, "cycling": null, "denomination": null, "landuse": "grass", "religion": null, "amenity": null, "fee": null, "parking": null, "capacity": null, "source": null, "layer": null }, "geometry": { "type": "Polygon", "coordinates": [ [ [ 10.8891172, 49.5671958 ], [ 10.889076, 49.567124 ], [ 10.8885959, 49.5671675 ], [ 10.888551, 49.5671775 ], [ 10.8882446, 49.5672457 ], [ 10.8878851, 49.5673762 ], [ 10.8879138, 49.5674819 ], [ 10.88792, 49.5675049 ], [ 10.8879991, 49.5674945 ], [ 10.8886748, 49.567429 ], [ 10.8886667, 49.5673981 ], [ 10.8886981, 49.5673935 ], [ 10.8886653, 49.567378 ], [ 10.8886614, 49.5673467 ], [ 10.888691, 49.5673233 ], [ 10.8887195, 49.5673134 ], [ 10.8887119, 49.5672888 ], [ 10.888844, 49.5672731 ], [ 10.8888494, 49.5672991 ], [ 10.888975, 49.5672864 ], [ 10.8891172, 49.5671958 ] ] ] } },
{ "type": "Feature", "properties": { "element": "way", "id": 29289478, "access": "yes", "leisure": null, "addr:city": null, "addr:housenumber": null, "addr:postcode": null, "addr:street": null, "name": null, "opening_hours": null, "operator": null, "phone": null, "website": null, "building": null, "description": null, "sport": null, "area": null, "lit": null, "surface": null, "lanes": null, "addr:country": null, "cuisine": null, "indoor_seating": null, "outdoor_seating": null, "seasonal": null, "brand": null, "cycling": null, "denomination": null, "landuse": null, "religion": null, "amenity": "parking", "fee": "no", "parking": "surface", "capacity": null, "source": null, "layer": null }, "geometry": { "type": "Polygon", "coordinates": [ [ [ 10.8909099, 49.5675831 ], [ 10.8909573, 49.567922 ], [ 10.8908416, 49.5679288 ], [ 10.8906024, 49.5679429 ], [ 10.8905167, 49.5679479 ], [ 10.8904693, 49.567609 ], [ 10.8909099, 49.5675831 ] ] ] } },
{ "type": "Feature", "properties": { "element": "way", "id": 30626109, "access": "yes", "leisure": null, "addr:city": null, "addr:housenumber": null, "addr:postcode": null, "addr:street": null, "name": null, "opening_hours": null, "operator": null, "phone": null, "website": null, "building": null, "description": null, "sport": null, "area": null, "lit": null, "surface": null, "lanes": null, "addr:country": null, "cuisine": null, "indoor_seating": null, "outdoor_seating": null, "seasonal": null, "brand": null, "cycling": null, "denomination": null, "landuse": null, "religion": null, "amenity": "parking", "fee": "no", "parking": "surface", "capacity": null, "source": null, "layer": null }, "geometry": { "type": "Polygon", "coordinates": [ [ [ 10.8865842, 49.5707646 ], [ 10.8867378, 49.5709456 ], [ 10.8871258, 49.5708339 ], [ 10.886958, 49.570608 ], [ 10.8865967, 49.5707068 ], [ 10.8865842, 49.5707646 ] ] ] } },
{ "type": "Feature", "properties": { "element": "way", "id": 216622628, "access": "private", "leisure": null, "addr:city": null, "addr:housenumber": null, "addr:postcode": null, "addr:street": null, "name": "Schaeffler P13 Parkplatz Mühlgärten", "opening_hours": null, "operator": null, "phone": null, "website": null, "building": null, "description": null, "sport": null, "area": null, "lit": null, "surface": null, "lanes": null, "addr:country": null, "cuisine": null, "indoor_seating": null, "outdoor_seating": null, "seasonal": null, "brand": null, "cycling": null, "denomination": null, "landuse": null, "religion": null, "amenity": "parking", "fee": null, "parking": "surface", "capacity": "512", "source": "Bing", "layer": null }, "geometry": { "type": "Polygon", "coordinates": [ [ [ 10.8906911, 49.5660568 ], [ 10.8914084, 49.5659795 ], [ 10.8915031, 49.5660418 ], [ 10.8923022, 49.5661332 ], [ 10.892319, 49.5662055 ], [ 10.8923343, 49.5667337 ], [ 10.8922433, 49.5668243 ], [ 10.8915492, 49.5667456 ], [ 10.8915526, 49.5669301 ], [ 10.8918546, 49.5668942 ], [ 10.8918579, 49.566991 ], [ 10.8916572, 49.567022 ], [ 10.891658, 49.5670542 ], [ 10.8915233, 49.5670683 ], [ 10.8914885, 49.5670974 ], [ 10.8907556, 49.5671827 ], [ 10.8907458, 49.5671435 ], [ 10.8906823, 49.5671452 ], [ 10.8906273, 49.567117 ], [ 10.890622, 49.5670167 ], [ 10.8906239, 49.5661374 ], [ 10.8906292, 49.5661218 ], [ 10.8906507, 49.5661061 ], [ 10.8906775, 49.5661026 ], [ 10.8907043, 49.5660991 ], [ 10.8906911, 49.5660568 ] ] ] } },
{ "type": "Feature", "properties": { "element": "way", "id": 216622629, "access": "private", "leisure": null, "addr:city": null, "addr:housenumber": null, "addr:postcode": null, "addr:street": null, "name": "Schaeffler P13.1 Parkplatz Mühlgärten", "opening_hours": null, "operator": null, "phone": null, "website": null, "building": null, "description": "Provisorische Schotterfläche", "sport": null, "area": null, "lit": null, "surface": "gravel", "lanes": null, "addr:country": null, "cuisine": null, "indoor_seating": null, "outdoor_seating": null, "seasonal": null, "brand": null, "cycling": null, "denomination": null, "landuse": null, "religion": null, "amenity": "parking", "fee": null, "parking": "surface", "capacity": "380", "source": "Bing", "layer": null }, "geometry": { "type": "Polygon", "coordinates": [ [ [ 10.8906892, 49.5660577 ], [ 10.890657, 49.5659382 ], [ 10.8903019, 49.5659418 ], [ 10.8899884, 49.5660458 ], [ 10.8895708, 49.5662627 ], [ 10.8892666, 49.566468 ], [ 10.8892583, 49.5665644 ], [ 10.8893822, 49.5669147 ], [ 10.8900184, 49.5669709 ], [ 10.890273, 49.5670386 ], [ 10.8906134, 49.5670172 ], [ 10.8906158, 49.566136 ], [ 10.8906223, 49.5661214 ], [ 10.890649, 49.5661034 ], [ 10.890701, 49.5660968 ], [ 10.8906892, 49.5660577 ] ] ] } },
{ "type": "Feature", "properties": { "element": "way", "id": 380110808, "access": "customers", "leisure": null, "addr:city": null, "addr:housenumber": null, "addr:postcode": null, "addr:street": null, "name": null, "opening_hours": null, "operator": "Hotel Aurach", "phone": null, "website": null, "building": null, "description": null, "sport": null, "area": null, "lit": null, "surface": null, "lanes": null, "addr:country": null, "cuisine": null, "indoor_seating": null, "outdoor_seating": null, "seasonal": null, "brand": null, "cycling": null, "denomination": null, "landuse": null, "religion": null, "amenity": "parking", "fee": "no", "parking": "surface", "capacity": null, "source": null, "layer": null }, "geometry": { "type": "Polygon", "coordinates": [ [ [ 10.8862378, 49.5668218 ], [ 10.8860744, 49.5667266 ], [ 10.885962, 49.5667335 ], [ 10.885859, 49.566851 ], [ 10.8859604, 49.5669749 ], [ 10.8860827, 49.5669401 ], [ 10.8862141, 49.5668372 ], [ 10.8862378, 49.5668218 ] ] ] } },
{ "type": "Feature", "properties": { "element": "way", "id": 380199981, "access": "private", "leisure": null, "addr:city": null, "addr:housenumber": null, "addr:postcode": null, "addr:street": null, "name": null, "opening_hours": null, "operator": null, "phone": null, "website": null, "building": null, "description": null, "sport": null, "area": null, "lit": null, "surface": null, "lanes": null, "addr:country": null, "cuisine": null, "indoor_seating": null, "outdoor_seating": null, "seasonal": null, "brand": null, "cycling": null, "denomination": null, "landuse": null, "religion": null, "amenity": "parking", "fee": null, "parking": "street_side", "capacity": null, "source": null, "layer": null }, "geometry": { "type": "Polygon", "coordinates": [ [ [ 10.8916354, 49.5708543 ], [ 10.8917435, 49.5708605 ], [ 10.8917592, 49.5707464 ], [ 10.8916511, 49.5707402 ], [ 10.8916354, 49.5708543 ] ] ] } },
{ "type": "Feature", "properties": { "element": "way", "id": 591529045, "access": "customers", "leisure": null, "addr:city": null, "addr:housenumber": null, "addr:postcode": null, "addr:street": null, "name": null, "opening_hours": null, "operator": null, "phone": null, "website": null, "building": null, "description": null, "sport": null, "area": null, "lit": null, "surface": null, "lanes": null, "addr:country": null, "cuisine": null, "indoor_seating": null, "outdoor_seating": null, "seasonal": null, "brand": null, "cycling": null, "denomination": null, "landuse": null, "religion": null, "amenity": "parking", "fee": "no", "parking": "surface", "capacity": null, "source": null, "layer": null }, "geometry": { "type": "Polygon", "coordinates": [ [ [ 10.8883549, 49.5670827 ], [ 10.8885058, 49.5670425 ], [ 10.8884269, 49.566974 ], [ 10.8883767, 49.5670063 ], [ 10.8883135, 49.5670469 ], [ 10.8883549, 49.5670827 ] ] ] } },
{ "type": "Feature", "properties": { "element": "way", "id": 1231759716, "access": "private", "leisure": null, "addr:city": null, "addr:housenumber": null, "addr:postcode": null, "addr:street": null, "name": null, "opening_hours": null, "operator": null, "phone": null, "website": null, "building": null, "description": null, "sport": null, "area": null, "lit": null, "surface": null, "lanes": null, "addr:country": null, "cuisine": null, "indoor_seating": null, "outdoor_seating": null, "seasonal": null, "brand": null, "cycling": null, "denomination": null, "landuse": null, "religion": null, "amenity": "parking", "fee": null, "parking": "surface", "capacity": null, "source": null, "layer": null }, "geometry": { "type": "Polygon", "coordinates": [ [ [ 10.8844694, 49.5675109 ], [ 10.8846247, 49.567477 ], [ 10.8845834, 49.5673876 ], [ 10.8844299, 49.5674286 ], [ 10.8844694, 49.5675109 ] ] ] } },
{ "type": "Feature", "properties": { "element": "way", "id": 1231759720, "access": "customers", "leisure": null, "addr:city": null, "addr:housenumber": null, "addr:postcode": null, "addr:street": null, "name": null, "opening_hours": null, "operator": null, "phone": null, "website": null, "building": null, "description": null, "sport": null, "area": null, "lit": null, "surface": null, "lanes": null, "addr:country": null, "cuisine": null, "indoor_seating": null, "outdoor_seating": null, "seasonal": null, "brand": null, "cycling": null, "denomination": null, "landuse": null, "religion": null, "amenity": "parking", "fee": "no", "parking": "underground", "capacity": null, "source": null, "layer": "-1" }, "geometry": { "type": "Polygon", "coordinates": [ [ [ 10.8886815, 49.5668281 ], [ 10.8885934, 49.5668157 ], [ 10.8886513, 49.5667716 ], [ 10.8887254, 49.5667152 ], [ 10.8887702, 49.566751 ], [ 10.8887965, 49.5668197 ], [ 10.8886815, 49.5668281 ] ] ] } }
]
}
